OSCAR 7 (AO-7)          
1 07530U 74089B   24189.59071624 -.00000037  00000+0  56261-4 0  9995
2 07530 101.9781 184.4300 0012555  46.6832  80.2039 12.53676745271830
PHASE 3B (AO-10)        
1 14129U 83058B   24187.83974847 -.00000255  00000+0  00000+0 0  9994
2 14129  27.4278 336.1245 6033922 282.3100  19.8282  2.05866253280843
UOSAT 2 (UO-11)         
1 14781U 84021B   24189.81836113  .00001855  00000+0  21380-3 0  9996
2 14781  97.7056 158.4724 0008497  20.5394 339.6162 14.86828852172551
LUSAT (LO-19)           
1 20442U 90005G   24189.39476799  .00000215  00000+0  94576-4 0  9996
2 20442  98.8827 180.1938 0012618 123.5580 236.6810 14.33566143800671
EYESAT A (AO-27)        
1 22825U 93061C   24189.40200568  .00000174  00000+0  84055-4 0  9994
2 22825  98.7873 242.3874 0008818  27.2159 332.9483 14.30517186605508
ITAMSAT (IO-26)         
1 22826U 93061D   24189.58493466  .00000208  00000+0  96337-4 0  9999
2 22826  98.7820 242.4365 0009040  11.8119 348.3273 14.30900942605818
RADIO ROSTO (RS-15)     
1 23439U 94085A   24189.86727047 -.00000043  00000+0 -23591-5 0  9995
2 23439  64.8187  10.3244 0149676 139.8152 221.3952 11.27577645216214
JAS-2 (FO-29)           
1 24278U 96046B   24189.82289454 -.00000004  00000+0  28959-4 0  9995
2 24278  98.5803 121.7739 0350753 134.6880 228.3410 13.53191969377476
TECHSAT 1B (GO-32)      
1 25397U 98043D   24189.89411937  .00000139  00000+0  80614-4 0  9991
2 25397  98.9225 156.9273 0002397  94.3961 265.7491 14.24065791350583
PCSAT (NO-44)           
1 26931U 01043C   24189.54150303  .00000261  00000+0  12974-3 0  9998
2 26931  67.0515 278.9678 0007464 277.0414  82.9838 14.31270318188869
SAUDISAT 1C (SO-50)     
1 27607U 02058C   24189.89033143  .00001924  00000+0  27661-3 0  9992
2 27607  64.5540 157.9068 0025817 101.6088 258.7916 14.79104287159591
CUTE-1 (CO-55)          
1 27844U 03031E   24189.96951013  .00000522  00000+0  24953-3 0  9994
2 27844  98.6764 196.7086 0011051  85.3516 274.8924 14.23304231 90772
CUBESAT XI-IV (CO-57)   
1 27848U 03031J   24189.98218694  .00000440  00000+0  21555-3 0  9995
2 27848  98.6795 196.9542 0010918  99.5118 260.7295 14.22739886 90542
MOZHAYETS 4 (RS-22)     
1 27939U 03042A   24190.19849005  .00001557  00000+0  26772-3 0  9995
2 27939  98.2932 346.7333 0011828   0.0199 173.2732 14.70061668111369
CUBESAT XI-V            
1 28895U 05043F   24190.16881198  .00002075  00000+0  37165-3 0  9990
2 28895  98.2047 326.0289 0014390 292.4684  67.4997 14.67843645997764
CUTE-1.7+APD II (CO-65) 
1 32785U 08021C   24189.87270069  .00004719  00000+0  41449-3 0  9994
2 32785  97.7565 155.0316 0008923 254.6670 105.3566 14.97034588878647
SEEDS II (CO-66)        
1 32791U 08021J   24189.89030370  .00008333  00000+0  60205-3 0  9999
2 32791  97.6898 160.9511 0003916 217.8981 142.1970 15.04317556879712
YUBILEINY (RS-30)       
1 32953U 08025A   24190.15766664  .00000040  00000+0  21324-3 0  9992
2 32953  82.5021  76.4435 0020563  59.7692 300.5420 12.43143215731736
KKS-1 (KISEKI)          
1 33499U 09002H   24189.44784188  .00001997  00000+0  27822-3 0  9996
2 33499  98.1375  91.3148 0009966  69.3095 290.9183 14.78888399831112
SWISSCUBE               
1 35932U 09051B   24189.66717804  .00001462  00000+0  32053-3 0  9998
2 35932  98.4690  73.3873 0005892 253.5162 106.5390 14.59172725785589
BEESAT-1                
1 35933U 09051C   24189.67582824  .00001271  00000+0  28169-3 0  9993
2 35933  98.4618  74.2786 0004211 269.3641  90.7075 14.58892918785692
ITUPSAT1                
1 35935U 09051E   24190.18560811  .00001124  00000+0  25597-3 0  9994
2 35935  98.4715  74.5714 0006498 275.1331  84.9125 14.57843650785358
XIWANG-1 (HOPE-1)       
1 36122U 09072B   24190.16359130 -.00000023  00000+0  54983-4 0  9994
2 36122 100.2949 147.8875 0008139  58.0867 302.1037 13.16403167699828
O/OREOS (USA 219)       
1 37224U 10062C   24189.58249894  .00002496  00000+0  28135-3 0  9992
2 37224  71.9709 241.2899 0016829 329.6445  30.3746 14.87460584 10862
JUGNU                   
1 37839U 11058B   24189.67467053  .00000542  00000+0  14459-3 0  9993
2 37839  19.9613 297.5480 0018655 162.3035 338.1107 14.13236199658620
SRMSAT                  
1 37841U 11058D   24189.61920725  .00000470  00000+0  11216-3 0  9998
2 37841  19.9735  33.2011 0011775 319.4253  77.7051 14.11136538657454
STRAND-1                
1 39090U 13009E   24189.48224140  .00000468  00000+0  17511-3 0  9998
2 39090  98.3811  17.2095 0008707 184.2994 175.8119 14.36112729595159
ZACUBE-1 (TSHEPISOSAT)  
1 39417U 13066B   24189.40951527  .00004858  00000+0  50316-3 0  9999
2 39417  97.7347 144.9275 0052315  93.6529 267.0673 14.89473270574591
GOMX-1                  
1 39430U 13066Q   24190.16544546  .00002088  00000+0  35164-3 0  9995
2 39430  97.7297  63.2799 0139531 185.5443 174.4224 14.64297333566115
