OBJECT_NAME,OBJECT_ID,EPOCH,MEAN_MOTION,ECCENTRICITY,INCLINATION,RA_OF_ASC_NODE,ARG_OF_PERICENTER,MEAN_ANOMALY,EPHEMERIS_TYPE,CLASSIFICATION_TYPE,NORAD_CAT_ID,ELEMENT_SET_NO,REV_AT_EPOCH,BSTAR,MEAN_MOTION_DOT,MEAN_MOTION_DDOT
OSCAR 7 (AO-7),1974-089B,2024-07-07T14:10:37.883136,12.53676745,.0012555,101.9781,184.4300,46.6832,80.2039,0,U,7530,999,27183,.56261E-4,-.37E-6,0
PHASE 3B (AO-10),1983-058B,2024-07-05T20:09:14.267808,2.05866253,.6033922,27.4278,336.1245,282.3100,19.8282,0,U,14129,999,28084,0,-.255E-5,0
UOSAT 2 (UO-11),1984-021B,2024-07-07T19:38:26.401632,14.86828852,.0008497,97.7056,158.4724,20.5394,339.6162,0,U,14781,999,17255,.2138E-3,.1855E-4,0
LUSAT (LO-19),1990-005G,2024-07-07T09:28:27.954336,14.33566143,.0012618,98.8827,180.1938,123.5580,236.6810,0,U,20442,999,80067,.94576E-4,.215E-5,0
EYESAT A (AO-27),1993-061C,2024-07-07T09:38:53.290752,14.30517186,.0008818,98.7873,242.3874,27.2159,332.9483,0,U,22825,999,60550,.84055E-4,.174E-5,0
ITAMSAT (IO-26),1993-061D,2024-07-07T14:02:18.354624,14.30900942,.000904,98.7820,242.4365,11.8119,348.3273,0,U,22826,999,60581,.96337E-4,.208E-5,0
RADIO ROSTO (RS-15),1994-085A,2024-07-07T20:48:52.168608,11.27577645,.0149676,64.8187,10.3244,139.8152,221.3952,0,U,23439,999,21621,-.23591E-5,-.43E-6,0
JAS-2 (FO-29),1996-046B,2024-07-07T19:44:58.088256,13.53191969,.0350753,98.5803,121.7739,134.6880,228.3410,0,U,24278,999,37747,.28959E-4,-.4E-7,0
TECHSAT 1B (GO-32),1998-043D,2024-07-07T21:27:31.913568,14.24065791,.0002397,98.9225,156.9273,94.3961,265.7491,0,U,25397,999,35058,.80614E-4,.139E-5,0
PCSAT (NO-44),2001-043C,2024-07-07T12:59:45.861792,14.31270318,.0007464,67.0515,278.9678,277.0414,82.9838,0,U,26931,999,18886,.12974E-3,.261E-5,0
SAUDISAT 1C (SO-50),2002-058C,2024-07-07T21:22:04.635552,14.79104287,.0025817,64.5540,157.9068,101.6088,258.7916,0,U,27607,999,15959,.27661E-3,.1924E-4,0
CUTE-1 (CO-55),2003-031E,2024-07-07T23:16:05.675232,14.23304231,.0011051,98.6764,196.7086,85.3516,274.8924,0,U,27844,999,9077,.24953E-3,.522E-5,0
CUBESAT XI-IV (CO-57),2003-031J,2024-07-07T23:34:20.951616,14.22739886,.0010918,98.6795,196.9542,99.5118,260.7295,0,U,27848,999,9054,.21555E-3,.44E-5,0
MOZHAYETS 4 (RS-22),2003-042A,2024-07-08T04:45:49.540320,14.70061668,.0011828,98.2932,346.7333,0.0199,173.2732,0,U,27939,999,11136,.26772E-3,.1557E-4,0
CUBESAT XI-V,2005-043F,2024-07-08T04:03:05.355072,14.67843645,.001439,98.2047,326.0289,292.4684,67.4997,0,U,28895,999,99776,.37165E-3,.2075E-4,0
CUTE-1.7+APD II (CO-65),2008-021C,2024-07-07T20:56:41.339616,14.97034588,.0008923,97.7565,155.0316,254.6670,105.3566,0,U,32785,999,87864,.41449E-3,.4719E-4,0
SEEDS II (CO-66),2008-021J,2024-07-07T21:22:02.239680,15.04317556,.0003916,97.6898,160.9511,217.8981,142.1970,0,U,32791,999,87971,.60205E-3,.8333E-4,0
YUBILEINY (RS-30),2008-025A,2024-07-08T03:47:02.397696,12.43143215,.0020563,82.5021,76.4435,59.7692,300.5420,0,U,32953,999,73173,.21324E-3,.4E-6,0
KKS-1 (KISEKI),2009-002H,2024-07-07T10:44:53.538432,14.78888399,.0009966,98.1375,91.3148,69.3095,290.9183,0,U,33499,999,83111,.27822E-3,.1997E-4,0
SWISSCUBE,2009-051B,2024-07-07T16:00:44.182656,14.59172725,.0005892,98.4690,73.3873,253.5162,106.5390,0,U,35932,999,78558,.32053E-3,.1462E-4,0
BEESAT-1,2009-051C,2024-07-07T16:13:11.559936,14.58892918,.0004211,98.4618,74.2786,269.3641,90.7075,0,U,35933,999,78569,.28169E-3,.1271E-4,0
ITUPSAT1,2009-051E,2024-07-08T04:27:16.540704,14.57843650,.0006498,98.4715,74.5714,275.1331,84.9125,0,U,35935,999,78535,.25597E-3,.1124E-4,0
XIWANG-1 (HOPE-1),2009-072B,2024-07-08T03:55:34.288320,13.16403167,.0008139,100.2949,147.8875,58.0867,302.1037,0,U,36122,999,69982,.54983E-4,-.23E-6,0
O/OREOS (USA 219),2010-062C,2024-07-07T13:58:47.908416,14.87460584,.0016829,71.9709,241.2899,329.6445,30.3746,0,U,37224,999,1086,.28135E-3,.2496E-4,0
JUGNU,2011-058B,2024-07-07T16:11:31.533792,14.13236199,.0018655,19.9613,297.5480,162.3035,338.1107,0,U,37839,999,65862,.14459E-3,.542E-5,0
SRMSAT,2011-058D,2024-07-07T14:51:39.506400,14.11136538,.0011775,19.9735,33.2011,319.4253,77.7051,0,U,37841,999,65745,.11216E-3,.47E-5,0
STRAND-1,2013-009E,2024-07-07T11:34:25.656960,14.36112729,.0008707,98.3811,17.2095,184.2994,175.8119,0,U,39090,999,59515,.17511E-3,.468E-5,0
ZACUBE-1 (TSHEPISOSAT),2013-066B,2024-07-07T09:49:42.119328,14.89473270,.0052315,97.7347,144.9275,93.6529,267.0673,0,U,39417,999,57459,.50316E-3,.4858E-4,0
GOMX-1,2013-066Q,2024-07-08T03:58:14.487744,14.64297333,.0139531,97.7297,63.2799,185.5443,174.4224,0,U,39430,999,56611,.35164E-3,.2088E-4,0
